IRIDIUM 144             
1 43249U 18030A   25231.55152219  .00000053  00000+0  11968-4 0  9993
2 43249  86.3920  56.4919 0002196  91.2357 268.9090 14.34217321386909
IRIDIUM 149             
1 43250U 18030B   25231.55786433  .00000045  00000+0  91125-5 0  9991
2 43250  86.3917  56.4597 0002227  91.4591 268.6860 14.34217517386927
IRIDIUM 157             
1 43251U 18030C   25231.57689114  .00000068  00000+0  17135-4 0  9995
2 43251  86.3920  56.4984 0002212  84.2713 275.8735 14.34218158386903
IRIDIUM 140             
1 43252U 18030D   25231.87499397  .00000096  00000+0  27243-4 0  9993
2 43252  86.3920  56.3870 0002137  94.2826 265.8614 14.34217783387009
IRIDIUM 145             
1 43253U 18030E   25231.58323455  .00000083  00000+0  22396-4 0  9993
2 43253  86.3920  56.4819 0002439  97.3414 262.8059 14.34218240386891
IRIDIUM 146             
1 43254U 18030F   25231.56420542  .00000080  00000+0  21365-4 0  9999
2 43254  86.3920  56.5031 0002385  96.6724 263.4743 14.34218394386904
IRIDIUM 148             
1 43255U 18030G   25231.60226265  .00000077  00000+0  20402-4 0  9998
2 43255  86.3921  56.5257 0002320  87.6686 272.4775 14.34218119386946
IRIDIUM 142             
1 43256U 18030H   25231.57054878  .00000009  00000+0 -39796-5 0  9997
2 43256  86.3916  56.4390 0002425  97.9918 262.1553 14.34217716386904
